M2 PATHFINDER           
1 45727U 20037E   20290.52259667  .00000695  00000-0  75410-4 0  9993
2 45727  97.7052 107.8280 0011792 254.1971 105.7989 14.91239832 16066
